SHIJIAN-6 05A (SJ-6 05A)
1 49961U 21122A   26068.88345882  .00003299  00000+0  27617-3 0  9993
2 49961  97.4012  42.3306 0003221  76.6317 283.5266 14.99085264233873
STARLINK-32542          
1 62177U 24225Q   26068.68549558  .00007620  00000+0  64553-3 0  9990
2 62177  70.0016 164.4950 0003165 266.4456  93.6341 14.98340270 69870
