[{"OBJECT_NAME":"SHIJIAN-6 05A (SJ-6 05A)","OBJECT_ID":"2021-122A","EPOCH":"2026-03-09T21:12:10.842048","MEAN_MOTION":14.99085264,"ECCENTRICITY":0.0003221,"INCLINATION":97.4012,"RA_OF_ASC_NODE":42.3306,"ARG_OF_PERICENTER":76.6317,"MEAN_ANOMALY":283.5266,"EPHEMERIS_TYPE":0,"CLASSIFICATION_TYPE":"U","NORAD_CAT_ID":49961,"ELEMENT_SET_NO":999,"REV_AT_EPOCH":23387,"BSTAR":0.00027617,"MEAN_MOTION_DOT":3.299e-5,"MEAN_MOTION_DDOT":0},{"OBJECT_NAME":"STARLINK-32542","OBJECT_ID":"2024-225Q","EPOCH":"2026-03-09T16:27:06.818112","MEAN_MOTION":14.9834027,"ECCENTRICITY":0.00031654,"INCLINATION":70.0016,"RA_OF_ASC_NODE":164.495,"ARG_OF_PERICENTER":266.4456,"MEAN_ANOMALY":93.6341,"EPHEMERIS_TYPE":0,"CLASSIFICATION_TYPE":"U","NORAD_CAT_ID":62177,"ELEMENT_SET_NO":999,"REV_AT_EPOCH":6987,"BSTAR":0.00064552808,"MEAN_MOTION_DOT":7.62e-5,"MEAN_MOTION_DDOT":0}]
